ONEWEB-0199             
1 48234U 21031AA  24186.95122072 -.00000079  00000+0 -24731-3 0  9994
2 48234  87.8954  71.3898 0002091  77.8650 282.2714 13.14502647154699
ONEWEB-0203             
1 48235U 21031AB  24186.94169548 -.00000488  00000+0 -13501-2 0  9999
2 48235  87.8955  71.3933 0002188  68.8950 291.2413 13.14502495154700
ONEWEB-0197             
1 48236U 21031AC  24186.91712108  .00000118  00000+0  28390-3 0  9994
2 48236  87.8956  71.4070 0001930  89.8658 270.2693 13.14501110154617
ONEWEB-0194             
1 48237U 21031AD  24186.97183873  .00000194  00000+0  48978-3 0  9990
2 48237  87.8957  71.3892 0002098  75.3498 284.7864 13.14501725154799
ONEWEB-0193             
1 48238U 21031AE  24186.91157086  .00000177  00000+0  44350-3 0  9993
2 48238  87.8958  71.4095 0001846  74.1700 285.9634 13.14501475154734
ONEWEB-0191             
1 48239U 21031AF  24186.92266860 -.00000055  00000+0 -18389-3 0  9996
2 48239  87.8954  71.3903 0001844  75.4490 284.6844 13.14500856154591
ONEWEB-0195             
1 48240U 21031AG  24186.97580934  .00000240  00000+0  61283-3 0  9999
2 48240  87.8953  71.3788 0001501  68.6881 291.4409 13.14501441154584
ONEWEB-0201             
1 48241U 21031AH  24186.96468550 -.00000170  00000+0 -49244-3 0  9995
2 48241  87.8956  71.4161 0001677  76.6842 283.4475 13.14503242154815
